2022-023A               
1 51946U 22023A   26066.38437076  .00004303  00000+0  19500-3 0  9999
2 51946  63.4765 256.0240 0098533 341.4326  18.3199 15.18202647222269
STARLINK-32498          
1 61966U 24210H   26068.58512512  .00022434  00000+0  82165-3 0  9997
2 61966  43.0044 165.7411 0001894 285.7197  74.3445 15.27605242 75060
